{"fetched_at":"2026-07-05T17:36:33.489Z","source":"https://celestrak.org/NORAD/elements/gp.php?NAME=JILIN&FORMAT=JSON","constellation":"jilin-1-early","records":[{"OBJECT_NAME":"JILIN-1","OBJECT_ID":"2015-057D","EPOCH":"2026-07-05T05:20:27.101760","CLASSIFICATION_TYPE":"U","MEAN_MOTION":14.78191441,"ECCENTRICITY":0.00163024,"INCLINATION":97.6512,"RA_OF_ASC_NODE":184.6942,"ARG_OF_PERICENTER":199.6097,"MEAN_ANOMALY":160.449,"EPHEMERIS_TYPE":0,"NORAD_CAT_ID":40961,"ELEMENT_SET_NO":999,"REV_AT_EPOCH":57827,"BSTAR":0.00016183299,"MEAN_MOTION_DOT":0.00001127,"MEAN_MOTION_DDOT":0},{"OBJECT_NAME":"JILIN-1 03","OBJECT_ID":"2017-002B","EPOCH":"2026-07-05T06:19:18.039936","CLASSIFICATION_TYPE":"U","MEAN_MOTION":15.42045957,"ECCENTRICITY":0.00080103,"INCLINATION":97.195,"RA_OF_ASC_NODE":193.0974,"ARG_OF_PERICENTER":105.8337,"MEAN_ANOMALY":254.3795,"EPHEMERIS_TYPE":0,"NORAD_CAT_ID":41914,"ELEMENT_SET_NO":999,"REV_AT_EPOCH":52464,"BSTAR":0.00045872993,"MEAN_MOTION_DOT":0.00019545,"MEAN_MOTION_DDOT":0},{"OBJECT_NAME":"JILIN-1 04","OBJECT_ID":"2017-074A","EPOCH":"2026-07-05T04:24:19.387872","CLASSIFICATION_TYPE":"U","MEAN_MOTION":15.42937059,"ECCENTRICITY":0.00051078,"INCLINATION":97.487,"RA_OF_ASC_NODE":296.2825,"ARG_OF_PERICENTER":126.0872,"MEAN_ANOMALY":234.0849,"EPHEMERIS_TYPE":0,"NORAD_CAT_ID":43022,"ELEMENT_SET_NO":999,"REV_AT_EPOCH":47704,"BSTAR":0.00047732677,"MEAN_MOTION_DOT":0.00020941,"MEAN_MOTION_DDOT":0},{"OBJECT_NAME":"JILIN-1 05","OBJECT_ID":"2017-074B","EPOCH":"2026-07-05T04:33:45.031392","CLASSIFICATION_TYPE":"U","MEAN_MOTION":15.34171523,"ECCENTRICITY":0.00058779,"INCLINATION":97.4875,"RA_OF_ASC_NODE":292.5919,"ARG_OF_PERICENTER":152.9393,"MEAN_ANOMALY":207.2157,"EPHEMERIS_TYPE":0,"NORAD_CAT_ID":43023,"ELEMENT_SET_NO":999,"REV_AT_EPOCH":47676,"BSTAR":0.00041751156,"MEAN_MOTION_DOT":0.00013744,"MEAN_MOTION_DDOT":0},{"OBJECT_NAME":"JILIN-1 06","OBJECT_ID":"2017-074C","EPOCH":"2026-07-05T05:30:24.755616","CLASSIFICATION_TYPE":"U","MEAN_MOTION":15.33917697,"ECCENTRICITY":0.00073102,"INCLINATION":97.48,"RA_OF_ASC_NODE":289.6178,"ARG_OF_PERICENTER":164.7718,"MEAN_ANOMALY":195.3746,"EPHEMERIS_TYPE":0,"NORAD_CAT_ID":43024,"ELEMENT_SET_NO":999,"REV_AT_EPOCH":47660,"BSTAR":0.00028299637,"MEAN_MOTION_DOT":0.00009213,"MEAN_MOTION_DDOT":0},{"OBJECT_NAME":"JILIN-1 07","OBJECT_ID":"2018-008E","EPOCH":"2026-07-05T06:46:26.276448","CLASSIFICATION_TYPE":"U","MEAN_MOTION":15.35044708,"ECCENTRICITY":0.00079005,"INCLINATION":97.1765,"RA_OF_ASC_NODE":205.7306,"ARG_OF_PERICENTER":7.268,"MEAN_ANOMALY":352.8677,"EPHEMERIS_TYPE":0,"NORAD_CAT_ID":43159,"ELEMENT_SET_NO":999,"REV_AT_EPOCH":46777,"BSTAR":0.00040934045,"MEAN_MOTION_DOT":0.00013863,"MEAN_MOTION_DDOT":0},{"OBJECT_NAME":"JILIN-1 08","OBJECT_ID":"2018-008F","EPOCH":"2026-07-05T05:30:47.420064","CLASSIFICATION_TYPE":"U","MEAN_MOTION":15.33928195,"ECCENTRICITY":0.00065272,"INCLINATION":97.1801,"RA_OF_ASC_NODE":204.976,"ARG_OF_PERICENTER":28.0004,"MEAN_ANOMALY":332.1589,"EPHEMERIS_TYPE":0,"NORAD_CAT_ID":43160,"ELEMENT_SET_NO":999,"REV_AT_EPOCH":46771,"BSTAR":0.00028384915,"MEAN_MOTION_DOT":0.00009247,"MEAN_MOTION_DDOT":0},{"OBJECT_NAME":"JILIN-1 09","OBJECT_ID":"2019-005B","EPOCH":"2026-07-05T06:38:23.624448","CLASSIFICATION_TYPE":"U","MEAN_MOTION":15.20682209,"ECCENTRICITY":0.00031099,"INCLINATION":97.474,"RA_OF_ASC_NODE":281.0868,"ARG_OF_PERICENTER":57.4288,"MEAN_ANOMALY":302.7247,"EPHEMERIS_TYPE":0,"NORAD_CAT_ID":43943,"ELEMENT_SET_NO":999,"REV_AT_EPOCH":41189,"BSTAR":0.00036927949,"MEAN_MOTION_DOT":0.00008047,"MEAN_MOTION_DDOT":0},{"OBJECT_NAME":"JILIN-1 10","OBJECT_ID":"2019-005E","EPOCH":"2026-07-05T05:26:43.988064","CLASSIFICATION_TYPE":"U","MEAN_MOTION":15.25928883,"ECCENTRICITY":0.00075827,"INCLINATION":97.4791,"RA_OF_ASC_NODE":285.0339,"ARG_OF_PERICENTER":204.7099,"MEAN_ANOMALY":155.3777,"EPHEMERIS_TYPE":0,"NORAD_CAT_ID":43946,"ELEMENT_SET_NO":999,"REV_AT_EPOCH":41206,"BSTAR":0.00038095957,"MEAN_MOTION_DOT":0.00009712,"MEAN_MOTION_DDOT":0}]}
